ALOS-2                  
1 39766U 14029A   26079.20156816  .00000428  00000+0  64253-4 0  9997
2 39766  97.9197 177.6462 0001792 110.0685 250.0719 14.79409452638420
YAOGAN-29               
1 41038U 15069A   26079.18514487  .00000585  00000+0  78708-4 0  9990
2 41038  98.0126 107.6421 0001194  22.3384 337.7881 14.83007832557439
ASTRO-H (HITOMI)        
1 41337U 16012A   26078.81369164  .00002672  00000+0  15439-3 0  9990
2 41337  30.9993 291.2126 0009618  72.9706 287.1986 15.10068181553769
HXMT (HUIYAN)           
1 42758U 17034A   26079.11129806  .00004840  00000+0  24485-3 0  9994
2 42758  43.0149 318.7290 0032952 299.3815  60.3745 15.17597517484129
SAOCOM 1A               
1 43641U 18076A   26079.15714286  .00000575  00000+0  78824-4 0  9997
2 43641  97.8891 267.1818 0001507  86.0739 274.0646 14.82152244402919
H-2A R/B                
1 43682U 18084L   26079.18319397  .00012444  00000+0  29373-3 0  9990
2 43682  98.8714 298.8177 0024556 349.1904  10.8807 15.41759166407398
SAOCOM 1B               
1 46265U 20059A   26079.18835610 -.00000260  00000+0 -26143-4 0  9994
2 46265  97.8890 266.3105 0001446  88.9609 271.1770 14.82144248300303
CSS (TIANHE)            
1 48274U 21035A   26079.08035554  .00021521  00000+0  25018-3 0  9999
2 48274  41.4665 144.9122 0005723 338.4006  21.6591 15.61198195279230
COSMOS 2550             
1 48865U 21056A   26079.34178594 -.00000191  00000+0  29812-7 0  9990
2 48865  67.1426   8.6599 0008198 269.4448  90.5767 15.33831407265090
CZ-2C R/B               
1 52794U 22058K   26078.92512722  .00031493  00000+0  44923-3 0  9991
2 52794  50.1871 265.6082 0041858 244.5236 115.1402 15.54929442211724
CZ-2C R/B               
1 54039U 22132E   26079.00392851  .00038928  00000+0  42935-3 0  9998
2 54039  97.2957  82.6409 0019495  58.6214 301.6948 15.62761564191987
GSLV R/B                
1 54149U 22138AN  26079.21688485  .00002009  00000+0  17186-3 0  9991
2 54149  87.3869 162.8386 0023962 111.6289 248.7498 14.96839128185502
